{"type": "FeatureCollection", "features": [ {"type": "Feature", "properties": {"norad_id": 66574, "name": "STARLINK-35812", "group": "last-30-days", "lat": -26.62303782933511, "lon": -115.1865449896501, "alt_km": 476.84012210750825, "timestamp": "2025-12-27T23:26:36.070732+00:00", "meta": {"OBJECT_NAME": "STARLINK-35812", "OBJECT_ID": "2025-268T", "EPOCH": "2025-12-27T12:00:02.000160", "MEAN_MOTION": 15.32375018, "ECCENTRICITY": 0.0001338, "INCLINATION": 43.0006, "RA_OF_ASC_NODE": 34.9814, "ARG_OF_PERICENTER": 292.5615, "MEAN_ANOMALY": 176.9223, "EPHEMERIS_TYPE": 0, "CLASSIFICATION_TYPE": "U", "NORAD_CAT_ID": 66574, "ELEMENT_SET_NO": 999, "REV_AT_EPOCH": 599, "BSTAR": -0.067957, "MEAN_MOTION_DOT": -0.01934918, "MEAN_MOTION_DDOT": 0}, "tle": {"line1": "1 66574U 25268T   25361.50002315 -.01934918  00000+0 -67957-1 0  9995", "line2": "2 66574  43.0006  34.9814 0001338 292.5615 176.9223 15.32375018  5995"}}, "geometry": {"type": "Point", "coordinates": [-115.1865449896501, -26.62303782933511]}}, {"type": "Feature", "properties": {"norad_id": 66575, "name": "STARLINK-35810", "group": "last-30-days", "lat": -36.27781841879475, "lon": -95.80961255648958, "alt_km": 474.6344075364086, "timestamp": "2025-12-27T23:26:36.070743+00:00", "meta": {"OBJECT_NAME": "STARLINK-35810", "OBJECT_ID": "2025-268U", "EPOCH": "2025-12-27T12:00:02.000160", "MEAN_MOTION": 15.33224829, "ECCENTRICITY": 0.0001386, "INCLINATION": 43.0007, "RA_OF_ASC_NODE": 34.9387, "ARG_OF_PERICENTER": 294.9986, "MEAN_ANOMALY": 192.1842, "EPHEMERIS_TYPE": 0, "CLASSIFICATION_TYPE": "U", "NORAD_CAT_ID": 66575, "ELEMENT_SET_NO": 999, "REV_AT_EPOCH": 599, "BSTAR": -0.066883, "MEAN_MOTION_DOT": -0.0195419, "MEAN_MOTION_DDOT": 0}, "tle": {"line1": "1 66575U 25268U   25361.50002315 -.01954190  00000+0 -66883-1 0  9997", "line2": "2 66575  43.0007  34.9387 0001386 294.9986 192.1842 15.33224829  5993"}}, "geometry": {"type": "Point", "coordinates": [-95.80961255648958, -36.27781841879475]}}, {"type": "Feature", "properties": {"norad_id": 66576, "name": "STARLINK-35814", "group": "last-30-days", "lat": -41.96768855400551, "lon": -72.99290016937128, "alt_km": 472.15585698669656, "timestamp": "2025-12-27T23:26:36.070754+00:00", "meta": {"OBJECT_NAME": "STARLINK-35814", "OBJECT_ID": "2025-268V", "EPOCH": "2025-12-27T12:00:02.000160", "MEAN_MOTION": 15.34057497, "ECCENTRICITY": 0.0001326, "INCLINATION": 43.0003, "RA_OF_ASC_NODE": 34.8964, "ARG_OF_PERICENTER": 297.162, "MEAN_ANOMALY": 207.165, "EPHEMERIS_TYPE": 0, "CLASSIFICATION_TYPE": "U", "NORAD_CAT_ID": 66576, "ELEMENT_SET_NO": 999, "REV_AT_EPOCH": 604, "BSTAR": -0.064881, "MEAN_MOTION_DOT": -0.0194761, "MEAN_MOTION_DDOT": 0}, "tle": {"line1": "1 66576U 25268V   25361.50002315 -.01947610  00000+0 -64881-1 0  9993", "line2": "2 66576  43.0003  34.8964 0001326 297.1620 207.1650 15.34057497  6041"}}, "geometry": {"type": "Point", "coordinates": [-72.99290016937128, -41.96768855400551]}}, {"type": "Feature", "properties": {"norad_id": 66577, "name": "STARLINK-35815", "group": "last-30-days", "lat": -40.353055850189456, "lon": -33.64045917820163, "alt_km": 467.27895224364147, "timestamp": "2025-12-27T23:26:36.070764+00:00", "meta": {"OBJECT_NAME": "STARLINK-35815", "OBJECT_ID": "2025-268W", "EPOCH": "2025-12-27T12:00:02.000160", "MEAN_MOTION": 15.35478619, "ECCENTRICITY": 0.0001377, "INCLINATION": 43.0006, "RA_OF_ASC_NODE": 34.8325, "ARG_OF_PERICENTER": 293.6442, "MEAN_ANOMALY": 237.6603, "EPHEMERIS_TYPE": 0, "CLASSIFICATION_TYPE": "U", "NORAD_CAT_ID": 66577, "ELEMENT_SET_NO": 999, "REV_AT_EPOCH": 599, "BSTAR": -0.05933, "MEAN_MOTION_DOT": -0.01873009, "MEAN_MOTION_DDOT": 0}, "tle": {"line1": "1 66577U 25268W   25361.50002315 -.01873009  00000+0 -59330-1 0  9997", "line2": "2 66577  43.0006  34.8325 0001377 293.6442 237.6603 15.35478619  5998"}}, "geometry": {"type": "Point", "coordinates": [-33.64045917820163, -40.353055850189456]}}, {"type": "Feature", "properties": {"norad_id": 66578, "name": "STARLINK-35743", "group": "last-30-days", "lat": -33.84465564531192, "lon": -13.95472538742046, "alt_km": 464.99612942545446, "timestamp": "2025-12-27T23:26:36.070775+00:00", "meta": {"OBJECT_NAME": "STARLINK-35743", "OBJECT_ID": "2025-268X", "EPOCH": "2025-12-27T12:00:02.000160", "MEAN_MOTION": 15.36365757, "ECCENTRICITY": 9.59e-05, "INCLINATION": 43.0007, "RA_OF_ASC_NODE": 34.7915, "ARG_OF_PERICENTER": 300.4555, "MEAN_ANOMALY": 246.4529, "EPHEMERIS_TYPE": 0, "CLASSIFICATION_TYPE": "U", "NORAD_CAT_ID": 66578, "ELEMENT_SET_NO": 999, "REV_AT_EPOCH": 604, "BSTAR": -0.062102, "MEAN_MOTION_DOT": -0.020016, "MEAN_MOTION_DDOT": 0}, "tle": {"line1": "1 66578U 25268X   25361.50002315 -.02001600  00000+0 -62102-1 0  9990", "line2": "2 66578  43.0007  34.7915 0000959 300.4555 246.4529 15.36365757  6042"}}, "geometry": {"type": "Point", "coordinates": [-13.95472538742046, -33.84465564531192]}}, {"type": "Feature", "properties": {"norad_id": 66579, "name": "STARLINK-35868", "group": "last-30-days", "lat": -24.997399032015093, "lon": 2.004205635786065, "alt_km": 461.995132729915, "timestamp": "2025-12-27T23:26:36.070785+00:00", "meta": {"OBJECT_NAME": "STARLINK-35868", "OBJECT_ID": "2025-268Y", "EPOCH": "2025-12-27T12:00:02.000160", "MEAN_MOTION": 15.3721055, "ECCENTRICITY": 9.11e-05, "INCLINATION": 43.0008, "RA_OF_ASC_NODE": 34.7554, "ARG_OF_PERICENTER": 298.2518, "MEAN_ANOMALY": 263.7045, "EPHEMERIS_TYPE": 0, "CLASSIFICATION_TYPE": "U", "NORAD_CAT_ID": 66579, "ELEMENT_SET_NO": 999, "REV_AT_EPOCH": 604, "BSTAR": -0.060956, "MEAN_MOTION_DOT": -0.0201758, "MEAN_MOTION_DDOT": 0}, "tle": {"line1": "1 66579U 25268Y   25361.50002315 -.02017580  00000+0 -60956-1 0  9990", "line2": "2 66579  43.0008  34.7554 0000911 298.2518 263.7045 15.37210550  6040"}}, "geometry": {"type": "Point", "coordinates": [2.004205635786065, -24.997399032015093]}}, {"type": "Feature", "properties": {"norad_id": 66580, "name": "STARLINK-35872", "group": "last-30-days", "lat": -15.04098670211984, "lon": 15.227872379636674, "alt_km": 458.9078403628537, "timestamp": "2025-12-27T23:26:36.070796+00:00", "meta": {"OBJECT_NAME": "STARLINK-35872", "OBJECT_ID": "2025-268Z", "EPOCH": "2025-12-27T12:00:02.000160", "MEAN_MOTION": 15.37971057, "ECCENTRICITY": 9.24e-05, "INCLINATION": 43.0007, "RA_OF_ASC_NODE": 34.7201, "ARG_OF_PERICENTER": 283.8932, "MEAN_ANOMALY": 292.6129, "EPHEMERIS_TYPE": 0, "CLASSIFICATION_TYPE": "U", "NORAD_CAT_ID": 66580, "ELEMENT_SET_NO": 999, "REV_AT_EPOCH": 599, "BSTAR": -0.056972, "MEAN_MOTION_DOT": -0.01942389, "MEAN_MOTION_DDOT": 0}, "tle": {"line1": "1 66580U 25268Z   25361.50002315 -.01942389  00000+0 -56972-1 0  9998", "line2": "2 66580  43.0007  34.7201 0000924 283.8932 292.6129 15.37971057  5997"}}, "geometry": {"type": "Point", "coordinates": [15.227872379636674, -15.04098670211984]}}, {"type": "Feature", "properties": {"norad_id": 66581, "name": "STARLINK-35744", "group": "last-30-days", "lat": -4.773775123267376, "lon": 26.80796445257774, "alt_km": 455.33091688590775, "timestamp": "2025-12-27T23:26:36.070806+00:00", "meta": {"OBJECT_NAME": "STARLINK-35744", "OBJECT_ID": "2025-268AA", "EPOCH": "2025-12-27T12:00:02.000160", "MEAN_MOTION": 15.38884848, "ECCENTRICITY": 8.74e-05, "INCLINATION": 43.0006, "RA_OF_ASC_NODE": 34.6856, "ARG_OF_PERICENTER": 298.7326, "MEAN_ANOMALY": 291.6388, "EPHEMERIS_TYPE": 0, "CLASSIFICATION_TYPE": "U", "NORAD_CAT_ID": 66581, "ELEMENT_SET_NO": 999, "REV_AT_EPOCH": 599, "BSTAR": -0.057608, "MEAN_MOTION_DOT": -0.02015117, "MEAN_MOTION_DDOT": 0}, "tle": {"line1": "1 66581U 25268AA  25361.50002315 -.02015117  00000+0 -57608-1 0  9997", "line2": "2 66581  43.0006  34.6856 0000874 298.7326 291.6388 15.38884848  5996"}}, "geometry": {"type": "Point", "coordinates": [26.80796445257774, -4.773775123267376]}}, {"type": "Feature", "properties": {"norad_id": 66582, "name": "STARLINK-35746", "group": "last-30-days", "lat": 11.439464160184695, "lon": 44.434338562290854, "alt_km": 449.12748650180674, "timestamp": "2025-12-27T23:26:36.070816+00:00", "meta": {"OBJECT_NAME": "STARLINK-35746", "OBJECT_ID": "2025-268AB", "EPOCH": "2025-12-27T12:00:02.000160", "MEAN_MOTION": 15.40315065, "ECCENTRICITY": 8.97e-05, "INCLINATION": 43.0004, "RA_OF_ASC_NODE": 34.635, "ARG_OF_PERICENTER": 296.9372, "MEAN_ANOMALY": 314.8364, "EPHEMERIS_TYPE": 0, "CLASSIFICATION_TYPE": "U", "NORAD_CAT_ID": 66582, "ELEMENT_SET_NO": 999, "REV_AT_EPOCH": 599, "BSTAR": -0.053366, "MEAN_MOTION_DOT": -0.0196386, "MEAN_MOTION_DDOT": 0}, "tle": {"line1": "1 66582U 25268AB  25361.50002315 -.01963860  00000+0 -53366-1 0  9991", "line2": "2 66582  43.0004  34.6350 0000897 296.9372 314.8364 15.40315065  5995"}}, "geometry": {"type": "Point", "coordinates": [44.434338562290854, 11.439464160184695]}}, {"type": "Feature", "properties": {"norad_id": 66583, "name": "STARLINK-35941", "group": "last-30-days", "lat": 20.40490158959366, "lon": 55.38612683636792, "alt_km": 445.75946227275017, "timestamp": "2025-12-27T23:26:36.070827+00:00", "meta": {"OBJECT_NAME": "STARLINK-35941", "OBJECT_ID": "2025-268AC", "EPOCH": "2025-12-27T12:00:02.000160", "MEAN_MOTION": 15.41154743, "ECCENTRICITY": 0.000103, "INCLINATION": 43.0004, "RA_OF_ASC_NODE": 34.6041, "ARG_OF_PERICENTER": 269.7352, "MEAN_ANOMALY": 354.437, "EPHEMERIS_TYPE": 0, "CLASSIFICATION_TYPE": "U", "NORAD_CAT_ID": 66583, "ELEMENT_SET_NO": 999, "REV_AT_EPOCH": 610, "BSTAR": -0.05216, "MEAN_MOTION_DOT": -0.01973193, "MEAN_MOTION_DDOT": 0}, "tle": {"line1": "1 66583U 25268AC  25361.50002315 -.01973193  00000+0 -52160-1 0  9993", "line2": "2 66583  43.0004  34.6041 0001030 269.7352 354.4370 15.41154743  6105"}}, "geometry": {"type": "Point", "coordinates": [55.38612683636792, 20.40490158959366]}}]}